STARLINK-5414           
1 54809U 22175BD  26052.51251753 -.00000800  00000+0 -32191-4 0  9996
2 54809  53.2176 101.2953 0001423  88.6635 271.4520 15.08818430177698
STARLINK-5408           
1 54810U 22175BE  26052.53322288 -.00001626  00000+0 -84160-4 0  9992
2 54810  53.2181  96.4190 0000902 111.1491 248.9597 15.08829992177763
STARLINK-5424           
1 54811U 22175BF  26052.49374232  .00012174  00000+0  78109-3 0  9997
2 54811  53.2168  96.8713 0001223  88.7570 271.3562 15.08867283177754
STARLINK-5382           
1 54820U 22177A   26052.47903047 -.00000190  00000+0  10137-5 0  9994
2 54820  43.0019 221.6903 0000995 233.5413 126.5338 15.02533835174516
STARLINK-5385           
1 54821U 22177B   26052.53329842  .00000202  00000+0  30007-4 0  9997
2 54821  43.0012 221.2416 0001408 275.2770  84.7911 15.02536644174528
STARLINK-5101           
1 54822U 22177C   26052.52885664 -.00000247  00000+0 -32025-5 0  9990
2 54822  43.0017 221.2039 0001307 268.6752  91.3941 15.02535996174525
STARLINK-5106           
1 54823U 22177D   26052.54217680 -.00000317  00000+0 -83660-5 0  9999
2 54823  43.0021 221.3029 0001148 260.4298  99.6414 15.02535354174523
STARLINK-4643           
1 54824U 22177E   26052.47237171 -.00000085  00000+0  88063-5 0  9992
2 54824  43.0010 221.6399 0001009 237.0582 123.0163 15.02534666174514
STARLINK-5107           
1 54826U 22177G   26052.52997371  .00000731  00000+0  69193-4 0  9994
2 54826  43.0023 221.2128 0001363 265.1887  94.8800 15.02530672174526
STARLINK-5383           
1 54827U 22177H   26052.52219708  .00000021  00000+0  16619-4 0  9993
2 54827  43.0007 221.1484 0000921 238.9938 121.0814 15.02536201174530
STARLINK-5381           
1 54828U 22177J   26052.51886738  .00000308  00000+0  37896-4 0  9994
2 54828  43.0017 221.1279 0001251 259.6236 100.4465 15.02535668174520
STARLINK-5394           
1 54830U 22177L   26052.51332030  .00000049  00000+0  18657-4 0  9994
2 54830  43.0003 221.0854 0001072 258.1323 101.9399 15.02534750174521
STARLINK-5395           
1 54831U 22177M   26052.53220055  .00000978  00000+0  87460-4 0  9999
2 54831  43.0014 221.2240 0000947 259.4178 100.6558 15.02536916174526
STARLINK-5386           
1 54834U 22177Q   26052.51222195  .00000834  00000+0  76826-4 0  9992
2 54834  43.0019 221.0733 0001366 266.6142  93.4544 15.02523908174538
STARLINK-5389           
1 54835U 22177R   26052.51664978  .00000120  00000+0  23930-4 0  9998
2 54835  43.0009 221.1113 0001044 253.3680 106.7048 15.02534165174527
STARLINK-5384           
1 54836U 22177S   26052.58335648  .00052830  00000+0  28373-2 0  9994
2 54836  43.0014 220.3680 0001112 312.1224 207.3388 15.14157303  5737
