[{"OBJECT_NAME":"STARLINK-5414","OBJECT_ID":"2022-175BD","EPOCH":"2026-02-21T12:18:01.514592","MEAN_MOTION":15.0881843,"ECCENTRICITY":0.00014234,"INCLINATION":53.2176,"RA_OF_ASC_NODE":101.2953,"ARG_OF_PERICENTER":88.6635,"MEAN_ANOMALY":271.452,"EPHEMERIS_TYPE":0,"CLASSIFICATION_TYPE":"U","NORAD_CAT_ID":54809,"ELEMENT_SET_NO":999,"REV_AT_EPOCH":17769,"BSTAR":-3.2191193e-5,"MEAN_MOTION_DOT":-8.0e-6,"MEAN_MOTION_DDOT":0},{"OBJECT_NAME":"STARLINK-5408","OBJECT_ID":"2022-175BE","EPOCH":"2026-02-21T12:47:50.456832","MEAN_MOTION":15.08829992,"ECCENTRICITY":9.025e-5,"INCLINATION":53.2181,"RA_OF_ASC_NODE":96.419,"ARG_OF_PERICENTER":111.1491,"MEAN_ANOMALY":248.9597,"EPHEMERIS_TYPE":0,"CLASSIFICATION_TYPE":"U","NORAD_CAT_ID":54810,"ELEMENT_SET_NO":999,"REV_AT_EPOCH":17776,"BSTAR":-8.4160101e-5,"MEAN_MOTION_DOT":-1.626e-5,"MEAN_MOTION_DDOT":0},{"OBJECT_NAME":"STARLINK-5424","OBJECT_ID":"2022-175BF","EPOCH":"2026-02-21T11:50:59.336448","MEAN_MOTION":15.08867283,"ECCENTRICITY":0.00012235,"INCLINATION":53.2168,"RA_OF_ASC_NODE":96.8713,"ARG_OF_PERICENTER":88.757,"MEAN_ANOMALY":271.3562,"EPHEMERIS_TYPE":0,"CLASSIFICATION_TYPE":"U","NORAD_CAT_ID":54811,"ELEMENT_SET_NO":999,"REV_AT_EPOCH":17775,"BSTAR":0.00078108827,"MEAN_MOTION_DOT":0.00012174,"MEAN_MOTION_DDOT":0},{"OBJECT_NAME":"STARLINK-5382","OBJECT_ID":"2022-177A","EPOCH":"2026-02-21T11:29:48.232608","MEAN_MOTION":15.02533835,"ECCENTRICITY":9.955e-5,"INCLINATION":43.0019,"RA_OF_ASC_NODE":221.6903,"ARG_OF_PERICENTER":233.5413,"MEAN_ANOMALY":126.5338,"EPHEMERIS_TYPE":0,"CLASSIFICATION_TYPE":"U","NORAD_CAT_ID":54820,"ELEMENT_SET_NO":999,"REV_AT_EPOCH":17451,"BSTAR":1.013656e-6,"MEAN_MOTION_DOT":-1.9e-6,"MEAN_MOTION_DDOT":0},{"OBJECT_NAME":"STARLINK-5385","OBJECT_ID":"2022-177B","EPOCH":"2026-02-21T12:47:56.983488","MEAN_MOTION":15.02536644,"ECCENTRICITY":0.00014083,"INCLINATION":43.0012,"RA_OF_ASC_NODE":221.2416,"ARG_OF_PERICENTER":275.277,"MEAN_ANOMALY":84.7911,"EPHEMERIS_TYPE":0,"CLASSIFICATION_TYPE":"U","NORAD_CAT_ID":54821,"ELEMENT_SET_NO":999,"REV_AT_EPOCH":17452,"BSTAR":3.0006543e-5,"MEAN_MOTION_DOT":2.02e-6,"MEAN_MOTION_DDOT":0},{"OBJECT_NAME":"STARLINK-5101","OBJECT_ID":"2022-177C","EPOCH":"2026-02-21T12:41:33.213696","MEAN_MOTION":15.02535996,"ECCENTRICITY":0.00013073,"INCLINATION":43.0017,"RA_OF_ASC_NODE":221.2039,"ARG_OF_PERICENTER":268.6752,"MEAN_ANOMALY":91.3941,"EPHEMERIS_TYPE":0,"CLASSIFICATION_TYPE":"U","NORAD_CAT_ID":54822,"ELEMENT_SET_NO":999,"REV_AT_EPOCH":17452,"BSTAR":-3.202454e-6,"MEAN_MOTION_DOT":-2.47e-6,"MEAN_MOTION_DDOT":0},{"OBJECT_NAME":"STARLINK-5106","OBJECT_ID":"2022-177D","EPOCH":"2026-02-21T13:00:44.075520","MEAN_MOTION":15.02535354,"ECCENTRICITY":0.00011482,"INCLINATION":43.0021,"RA_OF_ASC_NODE":221.3029,"ARG_OF_PERICENTER":260.4298,"MEAN_ANOMALY":99.6414,"EPHEMERIS_TYPE":0,"CLASSIFICATION_TYPE":"U","NORAD_CAT_ID":54823,"ELEMENT_SET_NO":999,"REV_AT_EPOCH":17452,"BSTAR":-8.365951e-6,"MEAN_MOTION_DOT":-3.17e-6,"MEAN_MOTION_DDOT":0},{"OBJECT_NAME":"STARLINK-4643","OBJECT_ID":"2022-177E","EPOCH":"2026-02-21T11:20:12.915744","MEAN_MOTION":15.02534666,"ECCENTRICITY":0.00010092,"INCLINATION":43.001,"RA_OF_ASC_NODE":221.6399,"ARG_OF_PERICENTER":237.0582,"MEAN_ANOMALY":123.0163,"EPHEMERIS_TYPE":0,"CLASSIFICATION_TYPE":"U","NORAD_CAT_ID":54824,"ELEMENT_SET_NO":999,"REV_AT_EPOCH":17451,"BSTAR":8.806312e-6,"MEAN_MOTION_DOT":-8.5e-7,"MEAN_MOTION_DDOT":0},{"OBJECT_NAME":"STARLINK-5107","OBJECT_ID":"2022-177G","EPOCH":"2026-02-21T12:43:09.728544","MEAN_MOTION":15.02530672,"ECCENTRICITY":0.00013636,"INCLINATION":43.0023,"RA_OF_ASC_NODE":221.2128,"ARG_OF_PERICENTER":265.1887,"MEAN_ANOMALY":94.88,"EPHEMERIS_TYPE":0,"CLASSIFICATION_TYPE":"U","NORAD_CAT_ID":54826,"ELEMENT_SET_NO":999,"REV_AT_EPOCH":17452,"BSTAR":6.919282e-5,"MEAN_MOTION_DOT":7.31e-6,"MEAN_MOTION_DDOT":0},{"OBJECT_NAME":"STARLINK-5383","OBJECT_ID":"2022-177H","EPOCH":"2026-02-21T12:31:57.827712","MEAN_MOTION":15.02536201,"ECCENTRICITY":9.219e-5,"INCLINATION":43.0007,"RA_OF_ASC_NODE":221.1484,"ARG_OF_PERICENTER":238.9938,"MEAN_ANOMALY":121.0814,"EPHEMERIS_TYPE":0,"CLASSIFICATION_TYPE":"U","NORAD_CAT_ID":54827,"ELEMENT_SET_NO":999,"REV_AT_EPOCH":17453,"BSTAR":1.6618679e-5,"MEAN_MOTION_DOT":2.1e-7,"MEAN_MOTION_DDOT":0},{"OBJECT_NAME":"STARLINK-5381","OBJECT_ID":"2022-177J","EPOCH":"2026-02-21T12:27:10.141632","MEAN_MOTION":15.02535668,"ECCENTRICITY":0.0001251,"INCLINATION":43.0017,"RA_OF_ASC_NODE":221.1279,"ARG_OF_PERICENTER":259.6236,"MEAN_ANOMALY":100.4465,"EPHEMERIS_TYPE":0,"CLASSIFICATION_TYPE":"U","NORAD_CAT_ID":54828,"ELEMENT_SET_NO":999,"REV_AT_EPOCH":17452,"BSTAR":3.7896418e-5,"MEAN_MOTION_DOT":3.08e-6,"MEAN_MOTION_DDOT":0},{"OBJECT_NAME":"STARLINK-5394","OBJECT_ID":"2022-177L","EPOCH":"2026-02-21T12:19:10.873920","MEAN_MOTION":15.0253475,"ECCENTRICITY":0.00010726,"INCLINATION":43.0003,"RA_OF_ASC_NODE":221.0854,"ARG_OF_PERICENTER":258.1323,"MEAN_ANOMALY":101.9399,"EPHEMERIS_TYPE":0,"CLASSIFICATION_TYPE":"U","NORAD_CAT_ID":54830,"ELEMENT_SET_NO":999,"REV_AT_EPOCH":17452,"BSTAR":1.8656958e-5,"MEAN_MOTION_DOT":4.9e-7,"MEAN_MOTION_DDOT":0},{"OBJECT_NAME":"STARLINK-5395","OBJECT_ID":"2022-177M","EPOCH":"2026-02-21T12:46:22.127520","MEAN_MOTION":15.02536916,"ECCENTRICITY":9.472e-5,"INCLINATION":43.0014,"RA_OF_ASC_NODE":221.224,"ARG_OF_PERICENTER":259.4178,"MEAN_ANOMALY":100.6558,"EPHEMERIS_TYPE":0,"CLASSIFICATION_TYPE":"U","NORAD_CAT_ID":54831,"ELEMENT_SET_NO":999,"REV_AT_EPOCH":17452,"BSTAR":8.7460316e-5,"MEAN_MOTION_DOT":9.78e-6,"MEAN_MOTION_DDOT":0},{"OBJECT_NAME":"STARLINK-5386","OBJECT_ID":"2022-177Q","EPOCH":"2026-02-21T12:17:35.976480","MEAN_MOTION":15.02523908,"ECCENTRICITY":0.00013664,"INCLINATION":43.0019,"RA_OF_ASC_NODE":221.0733,"ARG_OF_PERICENTER":266.6142,"MEAN_ANOMALY":93.4544,"EPHEMERIS_TYPE":0,"CLASSIFICATION_TYPE":"U","NORAD_CAT_ID":54834,"ELEMENT_SET_NO":999,"REV_AT_EPOCH":17453,"BSTAR":7.6825887e-5,"MEAN_MOTION_DOT":8.34e-6,"MEAN_MOTION_DDOT":0},{"OBJECT_NAME":"STARLINK-5389","OBJECT_ID":"2022-177R","EPOCH":"2026-02-21T12:23:58.540992","MEAN_MOTION":15.02534165,"ECCENTRICITY":0.00010441,"INCLINATION":43.0009,"RA_OF_ASC_NODE":221.1113,"ARG_OF_PERICENTER":253.368,"MEAN_ANOMALY":106.7048,"EPHEMERIS_TYPE":0,"CLASSIFICATION_TYPE":"U","NORAD_CAT_ID":54835,"ELEMENT_SET_NO":999,"REV_AT_EPOCH":17452,"BSTAR":2.3930082e-5,"MEAN_MOTION_DOT":1.2e-6,"MEAN_MOTION_DDOT":0},{"OBJECT_NAME":"STARLINK-5384","OBJECT_ID":"2022-177S","EPOCH":"2026-02-21T14:00:01.999872","MEAN_MOTION":15.14157303,"ECCENTRICITY":0.00011126,"INCLINATION":43.0014,"RA_OF_ASC_NODE":220.368,"ARG_OF_PERICENTER":312.1224,"MEAN_ANOMALY":207.3388,"EPHEMERIS_TYPE":0,"CLASSIFICATION_TYPE":"U","NORAD_CAT_ID":54836,"ELEMENT_SET_NO":999,"REV_AT_EPOCH":573,"BSTAR":0.0028373066,"MEAN_MOTION_DOT":0.0005283,"MEAN_MOTION_DDOT":0}]
